FENGYUN 1C DEB          
1 32127U 99025CRV 17345.50543039  .00000388  00000-0  49673-3 0  9990
2 32127  99.2770  89.4732 0305008 217.1079 140.8621 13.51052321208721
